{
    "links": {
        "self": "http://www.neowsapp.com/rest/v1/neo/54055027?api_key=iIulBulltgU6a56xZRHN4H3l9WmuAYTsLGpBGhQ2"
    },
    "id": "54055027",
    "neo_reference_id": "54055027",
    "name": "(2020 TV)",
    "designation": "2020 TV",
    "nasa_jpl_url": "http://ssd.jpl.nasa.gov/sbdb.cgi?sstr=54055027",
    "absolute_magnitude_h": 25.541,
    "estimated_diameter": {
        "kilometers": {
            "estimated_diameter_min": 0.020718341,
            "estimated_diameter_max": 0.0463276188
        },
        "meters": {
            "estimated_diameter_min": 20.7183409918,
            "estimated_diameter_max": 46.3276188387
        },
        "miles": {
            "estimated_diameter_min": 0.0128737763,
            "estimated_diameter_max": 0.0287866388
        },
        "feet": {
            "estimated_diameter_min": 67.9735618596,
            "estimated_diameter_max": 151.9935049908
        }
    },
    "is_potentially_hazardous_asteroid": false,
    "close_approach_data": [
        {
            "close_approach_date": "2016-10-19",
            "close_approach_date_full": "2016-Oct-19 00:33",
            "epoch_date_close_approach": 1476837180000,
            "relative_velocity": {
                "kilometers_per_second": "27.212012763",
                "kilometers_per_hour": "97963.2459467384",
                "miles_per_hour": "60870.5513495164"
            },
            "miss_distance": {
                "astronomical": "0.296469959",
                "lunar": "115.326814051",
                "kilometers": "44351274.38538733",
                "miles": "27558603.993631954"
            },
            "orbiting_body": "Earth"
        },
        {
            "close_approach_date": "2018-09-18",
            "close_approach_date_full": "2018-Sep-18 05:27",
            "epoch_date_close_approach": 1537248420000,
            "relative_velocity": {
                "kilometers_per_second": "13.3904217488",
                "kilometers_per_hour": "48205.5182956998",
                "miles_per_hour": "29953.034409903"
            },
            "miss_distance": {
                "astronomical": "0.1397897475",
                "lunar": "54.3782117775",
                "kilometers": "20912248.473837825",
                "miles": "12994268.649398985"
            },
            "orbiting_body": "Venus"
        },
        {
            "close_approach_date": "2018-10-12",
            "close_approach_date_full": "2018-Oct-12 13:36",
            "epoch_date_close_approach": 1539351360000,
            "relative_velocity": {
                "kilometers_per_second": "23.2263415239",
                "kilometers_per_hour": "83614.8294859648",
                "miles_per_hour": "51955.0033547652"
            },
            "miss_distance": {
                "astronomical": "0.1523675353",
                "lunar": "59.2709712317",
                "kilometers": "22793858.738029811",
                "miles": "14163447.0520449518"
            },
            "orbiting_body": "Earth"
        },
        {
            "close_approach_date": "2020-10-04",
            "close_approach_date_full": "2020-Oct-04 19:32",
            "epoch_date_close_approach": 1601839920000,
            "relative_velocity": {
                "kilometers_per_second": "19.4563245349",
                "kilometers_per_hour": "70042.7683258168",
                "miles_per_hour": "43521.8523522276"
            },
            "miss_distance": {
                "astronomical": "0.0106468958",
                "lunar": "4.1416424662",
                "kilometers": "1592752.933791946",
                "miles": "989690.7804870148"
            },
            "orbiting_body": "Earth"
        },
        {
            "close_approach_date": "2022-09-30",
            "close_approach_date_full": "2022-Sep-30 03:29",
            "epoch_date_close_approach": 1664508540000,
            "relative_velocity": {
                "kilometers_per_second": "17.2084410148",
                "kilometers_per_hour": "61950.3876534186",
                "miles_per_hour": "38493.5617060922"
            },
            "miss_distance": {
                "astronomical": "0.0782322166",
                "lunar": "30.4323322574",
                "kilometers": "11703372.968738642",
                "miles": "7272138.7492195796"
            },
            "orbiting_body": "Earth"
        }
    ],
    "orbital_data": {
        "orbit_id": "4",
        "orbit_determination_date": "2020-10-12 07:29:30",
        "first_observation_date": "2020-10-07",
        "last_observation_date": "2020-10-12",
        "data_arc_in_days": 5,
        "observations_used": 68,
        "orbit_uncertainty": "8",
        "minimum_orbit_intersection": ".00220942",
        "jupiter_tisserand_invariant": "4.157",
        "epoch_osculation": "2459130.5",
        "eccentricity": ".5650000360221029",
        "semi_major_axis": "1.579876535508794",
        "inclination": "18.18354411990232",
        "ascending_node_longitude": "10.84980399421849",
        "orbital_period": "725.3258411043039",
        "perihelion_distance": ".6872462360358503",
        "perihelion_argument": "278.1303923673454",
        "aphelion_distance": "2.472506834981739",
        "perihelion_time": "2459077.324970282797",
        "mean_anomaly": "26.39229104128976",
        "mean_motion": ".4963286561690706",
        "equinox": "J2000",
        "orbit_class": {
            "orbit_class_type": "APO",
            "orbit_class_description": "Near-Earth asteroid orbits which cross the Earth’s orbit similar to that of 1862 Apollo",
            "orbit_class_range": "a (semi-major axis) > 1.0 AU; q (perihelion) < 1.017 AU"
        }
    },
    "is_sentry_object": false
}